{
  "norad_id": 48909,
  "name": "PACE-1",
  "history": [
    {
      "epoch": "2026-03-28T19:04:01.621344Z",
      "apogee_km": 364.14208376347324,
      "perigee_km": 360.6682779451485,
      "latitude_deg": -6.984416846686045e-05,
      "longitude_deg": 165.3683592134628,
      "height_km": 366.6799726320767,
      "semi_major_axis_km": 6740.542180854311,
      "eccentricity": 0.00025768,
      "inclination_deg": 97.684,
      "raan_deg": 277.5849,
      "arg_perigee_deg": 229.6751,
      "mean_anomaly_deg": 130.4284,
      "mean_motion_rev_day": 15.6877448
    },
    {
      "epoch": "2026-03-29T01:11:25.871136Z",
      "apogee_km": 364.05010244634013,
      "perigee_km": 360.5477719333767,
      "latitude_deg": 6.563966478139375e-05,
      "longitude_deg": 73.54542096790234,
      "height_km": 366.5723717374337,
      "semi_major_axis_km": 6740.435937189858,
      "eccentricity": 0.0002598,
      "inclination_deg": 97.6838,
      "raan_deg": 277.8645,
      "arg_perigee_deg": 230.1312,
      "mean_anomaly_deg": 129.9721,
      "mean_motion_rev_day": 15.68811571
    },
    {
      "epoch": "2026-03-30T01:40:57.190368Z",
      "apogee_km": 363.67939392570133,
      "perigee_km": 359.98454293720715,
      "latitude_deg": 3.2944028002823023e-06,
      "longitude_deg": 66.27808103728624,
      "height_km": 366.22859488275515,
      "semi_major_axis_km": 6739.968968431454,
      "eccentricity": 0.0002741,
      "inclination_deg": 97.6838,
      "raan_deg": 278.9835,
      "arg_perigee_deg": 227.6113,
      "mean_anomaly_deg": 132.4916,
      "mean_motion_rev_day": 15.68974613
    }
  ]
}